[{"OBJECT_NAME":"DELTA 2 R/B","OBJECT_ID":"1999-041E","EPOCH":"2026-03-31T00:47:30.831936","MEAN_MOTION":14.11887093,"ECCENTRICITY":0.05026406,"INCLINATION":51.7608,"RA_OF_ASC_NODE":216.0194,"ARG_OF_PERICENTER":51.3698,"MEAN_ANOMALY":313.1132,"EPHEMERIS_TYPE":0,"CLASSIFICATION_TYPE":"U","NORAD_CAT_ID":25876,"ELEMENT_SET_NO":999,"REV_AT_EPOCH":36604,"BSTAR":0.00021791901,"MEAN_MOTION_DOT":1.111e-5,"MEAN_MOTION_DDOT":0},{"OBJECT_NAME":"HELIOS 1B","OBJECT_ID":"1999-064A","EPOCH":"2026-03-31T05:39:57.648960","MEAN_MOTION":14.87782212,"ECCENTRICITY":0.00017312,"INCLINATION":98.1675,"RA_OF_ASC_NODE":353.1105,"ARG_OF_PERICENTER":47.9667,"MEAN_ANOMALY":312.1696,"EPHEMERIS_TYPE":0,"CLASSIFICATION_TYPE":"U","NORAD_CAT_ID":25977,"ELEMENT_SET_NO":999,"REV_AT_EPOCH":68846,"BSTAR":0.00023412882,"MEAN_MOTION_DOT":2.079e-5,"MEAN_MOTION_DDOT":0},{"OBJECT_NAME":"TERRA","OBJECT_ID":"1999-068A","EPOCH":"2026-03-31T05:18:58.313664","MEAN_MOTION":14.61037913,"ECCENTRICITY":0.0003611,"INCLINATION":97.9547,"RA_OF_ASC_NODE":142.8289,"ARG_OF_PERICENTER":106.9827,"MEAN_ANOMALY":322.9236,"EPHEMERIS_TYPE":0,"CLASSIFICATION_TYPE":"U","NORAD_CAT_ID":25994,"ELEMENT_SET_NO":999,"REV_AT_EPOCH":39822,"BSTAR":0.00013141431,"MEAN_MOTION_DOT":6.01e-6,"MEAN_MOTION_DDOT":0},{"OBJECT_NAME":"SL-16 R/B","OBJECT_ID":"2000-006B","EPOCH":"2026-03-31T06:41:05.167392","MEAN_MOTION":14.15829014,"ECCENTRICITY":0.0015542,"INCLINATION":71.0028,"RA_OF_ASC_NODE":52.4394,"ARG_OF_PERICENTER":156.0111,"MEAN_ANOMALY":204.1739,"EPHEMERIS_TYPE":0,"CLASSIFICATION_TYPE":"U","NORAD_CAT_ID":26070,"ELEMENT_SET_NO":999,"REV_AT_EPOCH":35161,"BSTAR":0.00017169589,"MEAN_MOTION_DOT":2.9e-6,"MEAN_MOTION_DDOT":0},{"OBJECT_NAME":"TITAN 4B R/B","OBJECT_ID":"2000-047B","EPOCH":"2026-03-31T05:29:39.586560","MEAN_MOTION":15.09762612,"ECCENTRICITY":0.00399411,"INCLINATION":67.9915,"RA_OF_ASC_NODE":339.9361,"ARG_OF_PERICENTER":10.1355,"MEAN_ANOMALY":350.059,"EPHEMERIS_TYPE":0,"CLASSIFICATION_TYPE":"U","NORAD_CAT_ID":26474,"ELEMENT_SET_NO":999,"REV_AT_EPOCH":39616,"BSTAR":0.00029622933,"MEAN_MOTION_DOT":4.749e-5,"MEAN_MOTION_DDOT":0},{"OBJECT_NAME":"ENVISAT","OBJECT_ID":"2002-009A","EPOCH":"2026-03-31T03:46:15.700224","MEAN_MOTION":14.39044482,"ECCENTRICITY":0.00012213,"INCLINATION":98.3763,"RA_OF_ASC_NODE":43.248,"ARG_OF_PERICENTER":82.0521,"MEAN_ANOMALY":289.8812,"EPHEMERIS_TYPE":0,"CLASSIFICATION_TYPE":"U","NORAD_CAT_ID":27386,"ELEMENT_SET_NO":999,"REV_AT_EPOCH":26226,"BSTAR":6.2560137e-5,"MEAN_MOTION_DOT":1.5e-6,"MEAN_MOTION_DDOT":0},{"OBJECT_NAME":"IDEFIX & ARIANE 42P R/B","OBJECT_ID":"2002-021B","EPOCH":"2026-03-31T05:46:50.316096","MEAN_MOTION":14.31040831,"ECCENTRICITY":0.00127042,"INCLINATION":98.5897,"RA_OF_ASC_NODE":28.5928,"ARG_OF_PERICENTER":120.8974,"MEAN_ANOMALY":239.3459,"EPHEMERIS_TYPE":0,"CLASSIFICATION_TYPE":"U","NORAD_CAT_ID":27422,"ELEMENT_SET_NO":999,"REV_AT_EPOCH":24710,"BSTAR":0.00014688749,"MEAN_MOTION_DOT":3.43e-6,"MEAN_MOTION_DDOT":0},{"OBJECT_NAME":"AQUA","OBJECT_ID":"2002-022A","EPOCH":"2026-03-31T06:03:51.531264","MEAN_MOTION":14.62027056,"ECCENTRICITY":0.00012353,"INCLINATION":98.4211,"RA_OF_ASC_NODE":58.0164,"ARG_OF_PERICENTER":117.2246,"MEAN_ANOMALY":354.3104,"EPHEMERIS_TYPE":0,"CLASSIFICATION_TYPE":"U","NORAD_CAT_ID":27424,"ELEMENT_SET_NO":999,"REV_AT_EPOCH":27188,"BSTAR":0.00027867219,"MEAN_MOTION_DOT":1.349e-5,"MEAN_MOTION_DDOT":0},{"OBJECT_NAME":"CZ-4B R/B","OBJECT_ID":"2002-024C","EPOCH":"2026-03-31T03:37:25.205952","MEAN_MOTION":14.14551466,"ECCENTRICITY":0.00494204,"INCLINATION":98.8792,"RA_OF_ASC_NODE":143.4451,"ARG_OF_PERICENTER":323.0173,"MEAN_ANOMALY":97.0961,"EPHEMERIS_TYPE":0,"CLASSIFICATION_TYPE":"U","NORAD_CAT_ID":27432,"ELEMENT_SET_NO":999,"REV_AT_EPOCH":23227,"BSTAR":5.2027873e-5,"MEAN_MOTION_DOT":5.6e-7,"MEAN_MOTION_DDOT":0},{"OBJECT_NAME":"MIDORI II (ADEOS-II)","OBJECT_ID":"2002-056A","EPOCH":"2026-03-31T03:43:14.884896","MEAN_MOTION":14.29301538,"ECCENTRICITY":6.171e-5,"INCLINATION":98.7806,"RA_OF_ASC_NODE":48.786,"ARG_OF_PERICENTER":20.211,"MEAN_ANOMALY":339.9096,"EPHEMERIS_TYPE":0,"CLASSIFICATION_TYPE":"U","NORAD_CAT_ID":27597,"ELEMENT_SET_NO":999,"REV_AT_EPOCH":21336,"BSTAR":0.00017272798,"MEAN_MOTION_DOT":3.94e-6,"MEAN_MOTION_DDOT":0},{"OBJECT_NAME":"H-2A R/B","OBJECT_ID":"2002-056E","EPOCH":"2026-03-31T02:56:08.563776","MEAN_MOTION":14.33775496,"ECCENTRICITY":0.00714019,"INCLINATION":98.3239,"RA_OF_ASC_NODE":49.6767,"ARG_OF_PERICENTER":97.5732,"MEAN_ANOMALY":274.5937,"EPHEMERIS_TYPE":0,"CLASSIFICATION_TYPE":"U","NORAD_CAT_ID":27601,"ELEMENT_SET_NO":999,"REV_AT_EPOCH":21718,"BSTAR":0.00015272203,"MEAN_MOTION_DOT":3.96e-6,"MEAN_MOTION_DDOT":0},{"OBJECT_NAME":"CZ-4B R/B","OBJECT_ID":"2003-049C","EPOCH":"2026-03-31T06:02:17.267136","MEAN_MOTION":14.5503989,"ECCENTRICITY":0.00484275,"INCLINATION":98.6893,"RA_OF_ASC_NODE":86.0055,"ARG_OF_PERICENTER":164.5929,"MEAN_ANOMALY":195.6754,"EPHEMERIS_TYPE":0,"CLASSIFICATION_TYPE":"U","NORAD_CAT_ID":28059,"ELEMENT_SET_NO":999,"REV_AT_EPOCH":18973,"BSTAR":0.00012385861,"MEAN_MOTION_DOT":4.91e-6,"MEAN_MOTION_DDOT":0},{"OBJECT_NAME":"CZ-2C R/B","OBJECT_ID":"2004-012C","EPOCH":"2026-03-31T03:29:59.913312","MEAN_MOTION":15.67204291,"ECCENTRICITY":0.00134436,"INCLINATION":97.7178,"RA_OF_ASC_NODE":157.5086,"ARG_OF_PERICENTER":224.2126,"MEAN_ANOMALY":135.806,"EPHEMERIS_TYPE":0,"CLASSIFICATION_TYPE":"U","NORAD_CAT_ID":28222,"ELEMENT_SET_NO":999,"REV_AT_EPOCH":20763,"BSTAR":0.00073084359,"MEAN_MOTION_DOT":0.00079102,"MEAN_MOTION_DDOT":0},{"OBJECT_NAME":"SL-16 R/B","OBJECT_ID":"2004-021B","EPOCH":"2026-03-31T00:35:06.674784","MEAN_MOTION":14.14596354,"ECCENTRICITY":0.00051091,"INCLINATION":71.001,"RA_OF_ASC_NODE":187.7211,"ARG_OF_PERICENTER":343.4558,"MEAN_ANOMALY":16.6397,"EPHEMERIS_TYPE":0,"CLASSIFICATION_TYPE":"U","NORAD_CAT_ID":28353,"ELEMENT_SET_NO":999,"REV_AT_EPOCH":12585,"BSTAR":0.00017815585,"MEAN_MOTION_DOT":2.95e-6,"MEAN_MOTION_DDOT":0},{"OBJECT_NAME":"CZ-4B R/B","OBJECT_ID":"2004-035C","EPOCH":"2026-03-31T01:03:47.252160","MEAN_MOTION":15.29440059,"ECCENTRICITY":0.0030087,"INCLINATION":97.3463,"RA_OF_ASC_NODE":124.0322,"ARG_OF_PERICENTER":251.5751,"MEAN_ANOMALY":108.2218,"EPHEMERIS_TYPE":0,"CLASSIFICATION_TYPE":"U","NORAD_CAT_ID":28415,"ELEMENT_SET_NO":999,"REV_AT_EPOCH":18317,"BSTAR":0.00039985269,"MEAN_MOTION_DOT":0.00011498,"MEAN_MOTION_DDOT":0},{"OBJECT_NAME":"CZ-2C R/B","OBJECT_ID":"2004-046B","EPOCH":"2026-03-31T05:20:00.409344","MEAN_MOTION":14.27000172,"ECCENTRICITY":0.01406098,"INCLINATION":98.1978,"RA_OF_ASC_NODE":3.8646,"ARG_OF_PERICENTER":91.1882,"MEAN_ANOMALY":270.5412,"EPHEMERIS_TYPE":0,"CLASSIFICATION_TYPE":"U","NORAD_CAT_ID":28480,"ELEMENT_SET_NO":999,"REV_AT_EPOCH":11157,"BSTAR":9.2899422e-5,"MEAN_MOTION_DOT":2.11e-6,"MEAN_MOTION_DDOT":0},{"OBJECT_NAME":"ARIANE 5 R/B","OBJECT_ID":"2004-049H","EPOCH":"2026-03-30T23:42:57.247776","MEAN_MOTION":14.85305727,"ECCENTRICITY":0.00828886,"INCLINATION":98.2658,"RA_OF_ASC_NODE":259.2473,"ARG_OF_PERICENTER":282.2328,"MEAN_ANOMALY":76.9613,"EPHEMERIS_TYPE":0,"CLASSIFICATION_TYPE":"U","NORAD_CAT_ID":28499,"ELEMENT_SET_NO":999,"REV_AT_EPOCH":14895,"BSTAR":0.00013187202,"MEAN_MOTION_DOT":1.139e-5,"MEAN_MOTION_DDOT":0}]
