DELTA 2 R/B             
1 25876U 99041E   26090.03299574  .00001111  00000+0  21792-3 0  9994
2 25876  51.7608 216.0194 0502640  51.3698 313.1132 14.11887093366044
HELIOS 1B               
1 25977U 99064A   26090.23608390  .00002079  00000+0  23413-3 0  9999
2 25977  98.1675 353.1105 0001731  47.9667 312.1696 14.87782212688469
TERRA                   
1 25994U 99068A   26090.22150826  .00000601  00000+0  13141-3 0  9993
2 25994  97.9547 142.8289 0003611 106.9827 322.9236 14.61037913398226
SL-16 R/B               
1 26070U 00006B   26090.27853203  .00000290  00000+0  17170-3 0  9997
2 26070  71.0028  52.4394 0015542 156.0111 204.1739 14.15829014351611
TITAN 4B R/B            
1 26474U 00047B   26090.22893040  .00004749  00000+0  29623-3 0  9997
2 26474  67.9915 339.9361 0039941  10.1355 350.0590 15.09762612396163
ENVISAT                 
1 27386U 02009A   26090.15712616  .00000150  00000+0  62560-4 0  9991
2 27386  98.3763  43.2480 0001221  82.0521 289.8812 14.39044482262264
IDEFIX & ARIANE 42P R/B 
1 27422U 02021B   26090.24086014  .00000343  00000+0  14689-3 0  9994
2 27422  98.5897  28.5928 0012704 120.8974 239.3459 14.31040831247108
AQUA                    
1 27424U 02022A   26090.25267976  .00001349  00000+0  27867-3 0  9995
2 27424  98.4211  58.0164 0001235 117.2246 354.3104 14.62027056271883
CZ-4B R/B               
1 27432U 02024C   26090.15098618  .00000056  00000+0  52028-4 0  9992
2 27432  98.8792 143.4451 0049420 323.0173  97.0961 14.14551466232278
MIDORI II (ADEOS-II)    
1 27597U 02056A   26090.15503339  .00000394  00000+0  17273-3 0  9997
2 27597  98.7806  48.7860 0000617  20.2110 339.9096 14.29301538213363
H-2A R/B                
1 27601U 02056E   26090.12232134  .00000396  00000+0  15272-3 0  9991
2 27601  98.3239  49.6767 0071401  97.5732 274.5937 14.33775496217182
CZ-4B R/B               
1 28059U 03049C   26090.25158874  .00000491  00000+0  12386-3 0  9993
2 28059  98.6893  86.0055 0048427 164.5929 195.6754 14.55039890189733
CZ-2C R/B               
1 28222U 04012C   26090.14583233  .00079102  00000+0  73084-3 0  9992
2 28222  97.7178 157.5086 0013443 224.2126 135.8060 15.67204291207631
SL-16 R/B               
1 28353U 04021B   26090.02438281  .00000295  00000+0  17816-3 0  9994
2 28353  71.0010 187.7211 0005109 343.4558  16.6397 14.14596354125851
CZ-4B R/B               
1 28415U 04035C   26090.04429690  .00011498  00000+0  39985-3 0  9992
2 28415  97.3463 124.0322 0030087 251.5751 108.2218 15.29440059183173
CZ-2C R/B               
1 28480U 04046B   26090.22222696  .00000211  00000+0  92899-4 0  9998
2 28480  98.1978   3.8646 0140609  91.1882 270.5412 14.27000172111572
ARIANE 5 R/B            
1 28499U 04049H   26089.98816259  .00001139  00000+0  13187-3 0  9998
2 28499  98.2658 259.2473 0082888 282.2328  76.9613 14.85305727148956
